NORAD_CAT_ID,OBJECT_NAME,OBJECT_TYPE,EPOCH,MEAN_MOTION,ECCENTRICITY,INCLINATION,RA_OF_ASC_NODE,ARG_OF_PERICENTER,MEAN_ANOMALY,BSTAR,MEAN_MOTION_DOT,MEAN_MOTION_DDOT,TLE_LINE0,TLE_LINE1,TLE_LINE2,SEMIMAJOR_AXIS,PERIOD,APOGEE,PERIGEE,DECAYED
52699.0,STARLINK-3987,PAYLOAD,2024-04-23 21:58:31,15.08855807,0.0001121,53.2175,333.2193,71.9081,288.2033,0.0013821,0.00021786,0.0,0 STARLINK-3987,1 52699U 22053AV  24114.91564252  .00021786  00000-0  13821-2 0  9990,2 52699  53.2175 333.2193 0001121  71.9081 288.2033 15.08855807107866,6917.832,95.437,540.473,538.922,0.0
52699.0,STARLINK-3987,PAYLOAD,2024-04-24 01:09:17,15.088669,9.7e-05,53.2173,332.6205,101.75,258.3601,0.0014247,0.00022475,0.0,0 STARLINK-3987,1 52699U 22053AV  24115.04811711  .00022475  00000-0  14247-2 0  9999,2 52699  53.2173 332.6205 0000970 101.7500 258.3601 15.08866900107450,6917.798,95.436,540.334,538.992,0.0
52699.0,STARLINK-3987,PAYLOAD,2024-04-24 13:52:22,15.08845387,6.91e-05,53.217,330.2467,68.7304,291.3762,4.0798e-05,3.62e-06,0.0,0 STARLINK-3987,1 52699U 22053AV  24115.57803954  .00000362  00000-0  40798-4 0  9990,2 52699  53.2170 330.2467 0000691  68.7304 291.3762 15.08845387107962,6917.864,95.437,540.207,539.251,0.0
52699.0,STARLINK-3987,PAYLOAD,2024-04-24 20:13:54,15.08854042,8.16e-05,53.2169,329.0561,75.5388,284.5695,0.0002131,3.107e-05,0.0,0 STARLINK-3987,1 52699U 22053AV  24115.84299420  .00003107  00000-0  21310-3 0  9995,2 52699  53.2169 329.0561 0000816  75.5388 284.5695 15.08854042107572,6917.837,95.437,540.267,539.138,0.0
52699.0,STARLINK-3987,PAYLOAD,2024-04-24 21:49:17,15.08856897,9.31e-05,53.2167,328.76,63.5596,296.5491,0.0002252,3.3e-05,0.0,0 STARLINK-3987,1 52699U 22053AV  24115.90923472  .00003300  00000-0  22520-3 0  9992,2 52699  53.2167 328.7600 0000931  63.5596 296.5491 15.08856897108013,6917.829,95.436,540.338,539.05,0.0
52699.0,STARLINK-3987,PAYLOAD,2024-04-24 23:24:40,15.08861929,6.44e-05,53.2162,328.4599,80.5635,279.543,0.00051193,7.874e-05,0.0,0 STARLINK-3987,1 52699U 22053AV  24115.97547062  .00007874  00000-0  51193-3 0  9994,2 52699  53.2162 328.4599 0000644  80.5635 279.5430 15.08861929107594,6917.813,95.436,540.124,539.233,0.0
52699.0,STARLINK-3987,PAYLOAD,2024-04-25 20:04:41,15.08844898,8.91e-05,53.2169,324.5917,74.8661,285.2429,0.0009335,0.00014602,0.0,0 STARLINK-3987,1 52699U 22053AV  24116.83659664  .00014602  00000-0  93350-3 0  9990,2 52699  53.2169 324.5917 0000891  74.8661 285.2429 15.08844898107724,6917.865,95.437,540.347,539.114,0.0
52699.0,STARLINK-3987,PAYLOAD,2024-04-26 07:12:23,15.08845952,7.02e-05,53.2162,322.5137,76.8186,283.2885,0.00054706,8.431e-05,0.0,0 STARLINK-3987,1 52699U 22053AV  24117.30027533  .00008431  00000-0  54706-3 0  9992,2 52699  53.2162 322.5137 0000702  76.8186 283.2885 15.08845952107797,6917.862,95.437,540.213,539.242,0.0
52699.0,STARLINK-3987,PAYLOAD,2024-04-26 19:55:29,15.08844237,0.0001322,53.2166,320.1338,84.7385,275.3758,0.00091938,0.00014376,0.0,0 STARLINK-3987,1 52699U 22053AV  24117.83019788  .00014376  00000-0  91938-3 0  9996,2 52699  53.2166 320.1338 0001322  84.7385 275.3758 15.08844237108300,6917.867,95.437,540.647,538.818,0.0
52699.0,STARLINK-3987,PAYLOAD,2024-04-27 13:24:43,15.08845501,0.0001305,53.2196,316.8644,98.9584,261.1556,0.00032751,4.929e-05,0.0,0 STARLINK-3987,1 52699U 22053AV  24118.55883714  .00004929  00000-0  32751-3 0  9995,2 52699  53.2196 316.8644 0001305  98.9584 261.1556 15.08845501107981,6917.864,95.437,540.631,538.826,0.0
52699.0,STARLINK-3987,PAYLOAD,2024-04-27 19:46:15,15.0884947,0.0001112,53.2188,315.6754,91.0723,269.0396,0.00028583,4.265e-05,0.0,0 STARLINK-3987,1 52699U 22053AV  24118.82379445  .00004265  00000-0  28583-3 0  9997,2 52699  53.2188 315.6754 0001112  91.0723 269.0396 15.08849470108457,6917.851,95.437,540.486,538.947,0.0
52699.0,STARLINK-3987,PAYLOAD,2024-04-28 19:37:03,15.08834211,8.19e-05,53.2167,311.2156,72.6922,287.4159,5.3459e-05,5.63e-06,0.0,0 STARLINK-3987,1 52699U 22053AV  24119.81740348  .00000563  00000-0  53459-4 0  9999,2 52699  53.2167 311.2156 0000819  72.6922 287.4159 15.08834211108178,6917.898,95.438,540.33,539.197,0.0
52699.0,STARLINK-3987,PAYLOAD,2024-04-29 05:09:22,15.08836916,8.64e-05,53.2168,309.4303,71.4538,288.6548,1.0562e-05,-1.2e-06,0.0,0 STARLINK-3987,1 52699U 22053AV  24120.21484238 -.00000120  00000-0  10562-4 0  9996,2 52699  53.2168 309.4303 0000864  71.4538 288.6548 15.08836916108665,6917.89,95.438,540.353,539.157,0.0
52699.0,STARLINK-3987,PAYLOAD,2024-04-29 22:38:36,15.08842624,9.53e-05,53.2183,306.159,72.5397,287.57,0.00011501,1.543e-05,0.0,0 STARLINK-3987,1 52699U 22053AV  24120.94348203  .00001543  00000-0  11501-3 0  9999,2 52699  53.2183 306.1590 0000953  72.5397 287.5700 15.08842624108771,6917.872,95.437,540.397,539.078,0.0
52699.0,STARLINK-3987,PAYLOAD,2024-04-30 05:00:09,15.08841556,8.9e-05,53.2178,304.9703,72.9872,287.1217,8.0894e-05,1e-05,0.0,0 STARLINK-3987,1 52699U 22053AV  24121.20844138  .00001000  00000-0  80894-4 0  9997,2 52699  53.2178 304.9703 0000890  72.9872 287.1217 15.08841556108388,6917.876,95.437,540.356,539.125,0.0
52699.0,STARLINK-3987,PAYLOAD,2024-04-30 19:18:37,15.08846512,8.71e-05,53.217,302.2927,57.7971,302.3105,0.00023518,3.458e-05,0.0,0 STARLINK-3987,1 52699U 22053AV  24121.80460164  .00003458  00000-0  23518-3 0  9994,2 52699  53.2170 302.2927 0000871  57.7971 302.3105 15.08846512108900,6917.86,95.437,540.328,539.123,0.0
52699.0,STARLINK-3987,PAYLOAD,2024-05-01 11:12:28,15.08847662,7.38e-05,53.2161,299.3208,80.1618,279.9457,0.00021658,3.162e-05,0.0,0 STARLINK-3987,1 52699U 22053AV  24122.46699946  .00003162  00000-0  21658-3 0  9994,2 52699  53.2161 299.3208 0000738  80.1618 279.9457 15.08847662108577,6917.857,95.437,540.233,539.211,0.0
52699.0,STARLINK-3987,PAYLOAD,2024-05-02 04:41:43,15.08848231,9.95e-05,53.2168,296.0484,72.2197,287.8904,0.00012421,1.69e-05,0.0,0 STARLINK-3987,1 52699U 22053AV  24123.19563757  .00001690  00000-0  12421-3 0  9997,2 52699  53.2168 296.0484 0000995  72.2197 287.8904 15.08848231109112,6917.855,95.437,540.409,539.032,0.0
52699.0,STARLINK-3987,PAYLOAD,2024-05-02 20:35:34,15.08847615,8.57e-05,53.2175,293.0759,78.6685,281.4404,8.3636e-05,1.044e-05,0.0,0 STARLINK-3987,1 52699U 22053AV  24123.85803939  .00001044  00000-0  83636-4 0  9999,2 52699  53.2175 293.0759 0000857  78.6685 281.4404 15.08847615108783,6917.857,95.437,540.315,539.129,0.0
52699.0,STARLINK-3987,PAYLOAD,2024-05-03 10:54:02,15.08846805,0.0001002,53.2173,290.3989,83.9712,276.1394,0.00013749,1.901e-05,0.0,0 STARLINK-3987,1 52699U 22053AV  24124.45419754  .00001901  00000-0  13749-3 0  9993,2 52699  53.2173 290.3989 0001002  83.9712 276.1394 15.08846805109307,6917.86,95.437,540.418,539.031,0.0
52699.0,STARLINK-3987,PAYLOAD,2024-05-03 17:15:34,15.0885383,9.81e-05,53.2162,289.2093,82.2454,277.8649,0.00022937,3.366e-05,0.0,0 STARLINK-3987,1 52699U 22053AV  24124.71915251  .00003366  00000-0  22937-3 0  9991,2 52699  53.2162 289.2093 0000981  82.2454 277.8649 15.08853830109349,6917.838,95.437,540.382,539.024,0.0
52699.0,STARLINK-3987,PAYLOAD,2024-05-04 04:23:16,15.08843999,8.78e-05,53.2148,287.1288,77.0693,283.0397,0.00022157,3.241e-05,0.0,0 STARLINK-3987,1 52699U 22053AV  24125.18283538  .00003241  00000-0  22157-3 0  9995,2 52699  53.2148 287.1288 0000878  77.0693 283.0397 15.08843999108981,6917.868,95.437,540.341,539.126,0.0
52699.0,STARLINK-3987,PAYLOAD,2024-05-04 20:17:08,15.08838386,0.0001028,53.2166,284.1538,100.5523,259.5585,4.7664e-05,4.71e-06,0.0,0 STARLINK-3987,1 52699U 22053AV  24125.84524226  .00000471  00000-0  47664-4 0  9993,2 52699  53.2166 284.1538 0001028 100.5523 259.5585 15.08838386109081,6917.885,95.438,540.461,539.039,0.0
52699.0,STARLINK-3987,PAYLOAD,2024-05-05 13:46:23,15.08842691,0.0001028,53.2163,280.8829,101.5829,258.5279,0.00018433,2.647e-05,0.0,0 STARLINK-3987,1 52699U 22053AV  24126.57388189  .00002647  00000-0  18433-3 0  9998,2 52699  53.2163 280.8829 0001028 101.5829 258.5279 15.08842691109627,6917.872,95.437,540.448,539.026,0.0
52699.0,STARLINK-3987,PAYLOAD,2024-05-05 16:57:09,15.08848582,0.0001061,53.2171,280.2877,100.6333,259.4779,0.0003015,4.515e-05,0.0,0 STARLINK-3987,1 52699U 22053AV  24126.70636056  .00004515  00000-0  30150-3 0  9998,2 52699  53.2171 280.2877 0001061 100.6333 259.4779 15.08848582109642,6917.854,95.437,540.453,538.985,0.0
52699.0,STARLINK-3987,PAYLOAD,2024-05-06 10:26:24,15.08849817,0.00011,53.2171,277.017,96.1595,263.9522,0.00047609,7.299e-05,0.0,0 STARLINK-3987,1 52699U 22053AV  24127.43500255  .00007299  00000-0  47609-3 0  9999,2 52699  53.2171 277.0170 0001100  96.1595 263.9522 15.08849817109328,6917.85,95.437,540.476,538.954,0.0
52699.0,STARLINK-3987,PAYLOAD,2024-05-06 15:12:33,15.08854484,0.0001094,53.2173,276.1252,94.014,266.0977,0.00051909,7.986e-05,0.0,0 STARLINK-3987,1 52699U 22053AV  24127.63372057  .00007986  00000-0  51909-3 0  9999,2 52699  53.2173 276.1252 0001094  94.0140 266.0977 15.08854484109780,6917.836,95.437,540.458,538.944,0.0
52699.0,STARLINK-3987,PAYLOAD,2024-05-06 16:47:56,15.08857505,0.0001129,53.2175,275.8297,80.7342,279.3778,0.0005854,9.045e-05,0.0,0 STARLINK-3987,1 52699U 22053AV  24127.69995991  .00009045  00000-0  58540-3 0  9999,2 52699  53.2175 275.8297 0001129  80.7342 279.3778 15.08857505109796,6917.827,95.436,540.473,538.911,0.0
52699.0,STARLINK-3987,PAYLOAD,2024-05-07 13:27:57,15.0884266,0.0001043,53.2173,271.965,82.31,277.8011,2.4087e-05,9.6e-07,0.0,0 STARLINK-3987,1 52699U 22053AV  24128.56108133  .00000096  00000-0  24087-4 0  9997,2 52699  53.2173 271.9650 0001043  82.3100 277.8011 15.08842660109495,6917.872,95.437,540.459,539.016,0.0
52699.0,STARLINK-3987,PAYLOAD,2024-05-07 16:38:43,15.08844293,0.0001036,53.2175,271.3694,87.0441,273.0669,0.00011223,1.499e-05,0.0,0 STARLINK-3987,1 52699U 22053AV  24128.69356080  .00001499  00000-0  11223-3 0  9992,2 52699  53.2175 271.3694 0001036  87.0441 273.0669 15.08844293109942,6917.867,95.437,540.449,539.016,0.0
